{
  "type": "FeatureCollection",
  "features": [
    {
      "type": "Feature",
      "properties": {
        "norad_id": 36036,
        "name": "SMOS",
        "group": "resource",
        "lat": 42.70158739049342,
        "lon": 168.84392795519486,
        "alt_km": 755.1749025791787,
        "timestamp": "2025-12-17T17:50:18.908747+00:00",
        "meta_object_name": "SMOS",
        "meta_object_id": "2009-059A",
        "meta_epoch": "2025-12-17T02:37:36.878304",
        "meta_mean_motion": 14.39745091,
        "meta_eccentricity": 0.00011,
        "meta_inclination": 98.438,
        "meta_ra_of_asc_node": 176.0932,
        "meta_arg_of_pericenter": 82.6152,
        "meta_mean_anomaly": 277.5161,
        "meta_ephemeris_type": 0,
        "meta_classification_type": "U",
        "meta_norad_cat_id": 36036,
        "meta_element_set_no": 999,
        "meta_rev_at_epoch": 84725,
        "meta_bstar": 0.00012236766,
        "meta_mean_motion_dot": 3.4e-06,
        "meta_mean_motion_ddot": 0,
        "tle_line1": "1 36036U 09059A   25351.10945461  .00000340  00000+0  12237-3 0  9991",
        "tle_line2": "2 36036  98.4380 176.0932 0001100  82.6152 277.5161 14.39745091847254"
      },
      "geometry": {
        "type": "Point",
        "coordinates": [
          168.84392795519486,
          42.70158739049342
        ]
      }
    },
    {
      "type": "Feature",
      "properties": {
        "norad_id": 36110,
        "name": "YAOGAN-7",
        "group": "resource",
        "lat": -11.31384190657495,
        "lon": 51.86374530136517,
        "alt_km": 636.0162321391117,
        "timestamp": "2025-12-17T17:50:18.908758+00:00",
        "meta_object_name": "YAOGAN-7",
        "meta_object_id": "2009-069A",
        "meta_epoch": "2025-12-17T05:35:51.309600",
        "meta_mean_motion": 14.77738955,
        "meta_eccentricity": 0.00233272,
        "meta_inclination": 98.0297,
        "meta_ra_of_asc_node": 232.9741,
        "meta_arg_of_pericenter": 265.9708,
        "meta_mean_anomaly": 93.8836,
        "meta_ephemeris_type": 0,
        "meta_classification_type": "U",
        "meta_norad_cat_id": 36110,
        "meta_element_set_no": 999,
        "meta_rev_at_epoch": 86275,
        "meta_bstar": 7.9423803e-05,
        "meta_mean_motion_dot": 5.18e-06,
        "meta_mean_motion_ddot": 0,
        "tle_line1": "1 36110U 09069A   25351.23323275  .00000518  00000+0  79424-4 0  9991",
        "tle_line2": "2 36110  98.0297 232.9741 0023327 265.9708  93.8836 14.77738955862751"
      },
      "geometry": {
        "type": "Point",
        "coordinates": [
          51.86374530136517,
          -11.31384190657495
        ]
      }
    },
    {
      "type": "Feature",
      "properties": {
        "norad_id": 36605,
        "name": "TANDEM-X",
        "group": "resource",
        "lat": 75.97153058222445,
        "lon": -151.3937192215864,
        "alt_km": 500.07200390079834,
        "timestamp": "2025-12-17T17:50:18.908768+00:00",
        "meta_object_name": "TANDEM-X",
        "meta_object_id": "2010-030A",
        "meta_epoch": "2025-12-16T12:56:12.065856",
        "meta_mean_motion": 15.19147751,
        "meta_eccentricity": 0.00018632,
        "meta_inclination": 97.4444,
        "meta_ra_of_asc_node": 355.8639,
        "meta_arg_of_pericenter": 80.5991,
        "meta_mean_anomaly": 279.5455,
        "meta_ephemeris_type": 0,
        "meta_classification_type": "U",
        "meta_norad_cat_id": 36605,
        "meta_element_set_no": 999,
        "meta_rev_at_epoch": 85891,
        "meta_bstar": 5.7396889e-05,
        "meta_mean_motion_dot": 1.138e-05,
        "meta_mean_motion_ddot": 0,
        "tle_line1": "1 36605U 10030A   25350.53902854  .00001138  00000+0  57397-4 0  9992",
        "tle_line2": "2 36605  97.4444 355.8639 0001863  80.5991 279.5455 15.19147751858912"
      },
      "geometry": {
        "type": "Point",
        "coordinates": [
          -151.3937192215864,
          75.97153058222445
        ]
      }
    },
    {
      "type": "Feature",
      "properties": {
        "norad_id": 36795,
        "name": "CARTOSAT-2B",
        "group": "resource",
        "lat": 42.5611897586473,
        "lon": -132.17102589352356,
        "alt_km": 627.557005614578,
        "timestamp": "2025-12-17T17:50:18.908779+00:00",
        "meta_object_name": "CARTOSAT-2B",
        "meta_object_id": "2010-035A",
        "meta_epoch": "2025-12-17T07:28:44.211648",
        "meta_mean_motion": 14.78732188,
        "meta_eccentricity": 0.00129326,
        "meta_inclination": 97.7854,
        "meta_ra_of_asc_node": 40.1938,
        "meta_arg_of_pericenter": 62.8732,
        "meta_mean_anomaly": 297.3797,
        "meta_ephemeris_type": 0,
        "meta_classification_type": "U",
        "meta_norad_cat_id": 36795,
        "meta_element_set_no": 999,
        "meta_rev_at_epoch": 83297,
        "meta_bstar": 0.0001198591,
        "meta_mean_motion_dot": 8.31e-06,
        "meta_mean_motion_ddot": 0,
        "tle_line1": "1 36795U 10035A   25351.31162282  .00000831  00000+0  11986-3 0  9999",
        "tle_line2": "2 36795  97.7854  40.1938 0012932  62.8732 297.3797 14.78732188832974"
      },
      "geometry": {
        "type": "Point",
        "coordinates": [
          -132.17102589352356,
          42.5611897586473
        ]
      }
    },
    {
      "type": "Feature",
      "properties": {
        "norad_id": 36834,
        "name": "YAOGAN-10",
        "group": "resource",
        "lat": -36.826997659733266,
        "lon": 17.50611678410181,
        "alt_km": 621.5655197874739,
        "timestamp": "2025-12-17T17:50:18.908789+00:00",
        "meta_object_name": "YAOGAN-10",
        "meta_object_id": "2010-038A",
        "meta_epoch": "2025-12-17T08:33:19.156608",
        "meta_mean_motion": 14.84625166,
        "meta_eccentricity": 0.00013715,
        "meta_inclination": 97.914,
        "meta_ra_of_asc_node": 11.1431,
        "meta_arg_of_pericenter": 80.3577,
        "meta_mean_anomaly": 336.4555,
        "meta_ephemeris_type": 0,
        "meta_classification_type": "U",
        "meta_norad_cat_id": 36834,
        "meta_element_set_no": 999,
        "meta_rev_at_epoch": 83022,
        "meta_bstar": 0.00021676577,
        "meta_mean_motion_dot": 1.778e-05,
        "meta_mean_motion_ddot": 0,
        "tle_line1": "1 36834U 10038A   25351.35647172  .00001778  00000+0  21677-3 0  9995",
        "tle_line2": "2 36834  97.9140  11.1431 0001371  80.3577 336.4555 14.84625166830228"
      },
      "geometry": {
        "type": "Point",
        "coordinates": [
          17.50611678410181,
          -36.826997659733266
        ]
      }
    },
    {
      "type": "Feature",
      "properties": {
        "norad_id": 37216,
        "name": "COSMO-SKYMED 4",
        "group": "resource",
        "lat": -21.593072184626536,
        "lon": -10.151943399471032,
        "alt_km": 628.430017335324,
        "timestamp": "2025-12-17T17:50:18.908800+00:00",
        "meta_object_name": "COSMO-SKYMED 4",
        "meta_object_id": "2010-060A",
        "meta_epoch": "2025-12-17T07:12:35.834400",
        "meta_mean_motion": 14.82150417,
        "meta_eccentricity": 0.00013859,
        "meta_inclination": 97.8803,
        "meta_ra_of_asc_node": 172.5545,
        "meta_arg_of_pericenter": 79.7803,
        "meta_mean_anomaly": 280.3567,
        "meta_ephemeris_type": 0,
        "meta_classification_type": "U",
        "meta_norad_cat_id": 37216,
        "meta_element_set_no": 999,
        "meta_rev_at_epoch": 81762,
        "meta_bstar": 5.1808175e-05,
        "meta_mean_motion_dot": 3.6e-06,
        "meta_mean_motion_ddot": 0,
        "tle_line1": "1 37216U 10060A   25351.30041475  .00000360  00000+0  51808-4 0  9990",
        "tle_line2": "2 37216  97.8803 172.5545 0001385  79.7803 280.3567 14.82150417817624"
      },
      "geometry": {
        "type": "Point",
        "coordinates": [
          -10.151943399471032,
          -21.593072184626536
        ]
      }
    },
    {
      "type": "Feature",
      "properties": {
        "norad_id": 37387,
        "name": "RESOURCESAT-2",
        "group": "resource",
        "lat": 21.793250491562123,
        "lon": -121.1816975162579,
        "alt_km": 822.4598189698681,
        "timestamp": "2025-12-17T17:50:18.908810+00:00",
        "meta_object_name": "RESOURCESAT-2",
        "meta_object_id": "2011-015A",
        "meta_epoch": "2025-12-17T06:57:49.897440",
        "meta_mean_motion": 14.21599107,
        "meta_eccentricity": 0.00062258,
        "meta_inclination": 98.7873,
        "meta_ra_of_asc_node": 54.8215,
        "meta_arg_of_pericenter": 30.5288,
        "meta_mean_anomaly": 329.6251,
        "meta_ephemeris_type": 0,
        "meta_classification_type": "U",
        "meta_norad_cat_id": 37387,
        "meta_element_set_no": 999,
        "meta_rev_at_epoch": 76033,
        "meta_bstar": 7.6113625e-05,
        "meta_mean_motion_dot": 1.22e-06,
        "meta_mean_motion_ddot": 0,
        "tle_line1": "1 37387U 11015A   25351.29016085  .00000122  00000+0  76114-4 0  9990",
        "tle_line2": "2 37387  98.7873  54.8215 0006225  30.5288 329.6251 14.21599107760334"
      },
      "geometry": {
        "type": "Point",
        "coordinates": [
          -121.1816975162579,
          21.793250491562123
        ]
      }
    }
  ]
}